DELTA 1 R/B             
1 20323U 89089B   25322.49653897  .00000535  00000+0  14095-3 0  9993
2 20323  97.0772 182.5740 0070642 113.4099 247.4548 14.50544369879613
ARIANE 40 R/B           
1 20443U 90005H   25322.13791979  .00000487  00000+0  16885-3 0  9996
2 20443  98.3279  21.0073 0010307 174.1741 185.9569 14.39772117876750
COSMOS 2058             
1 20465U 90010A   25322.24420648  .00004509  00000+0  27413-3 0  9998
2 20465  82.4636 157.1297 0010514   7.0933 353.0443 15.10190522925412
SL-14 R/B               
1 20466U 90010B   25322.19297157  .00000617  00000+0  72134-4 0  9997
2 20466  82.5042  12.0996 0018615 310.2203  49.7383 14.83439884911951
SL-14 R/B               
1 20511U 90018B   25322.44119381  .00000629  00000+0  76173-4 0  9996
2 20511  82.5201 327.0789 0017958  97.6757 262.6497 14.82012678906107
SL-16 R/B               
1 20625U 90046B   25322.00346999 -.00000037  00000+0  53334-5 0  9991
2 20625  70.9960 172.4700 0012303 118.8557 241.3802 14.14990065832599
COSMOS 2084             
1 20663U 90055A   25322.44765205  .00003440  00000+0  25344-3 0  9994
2 20663  62.7919 354.7526 0035582 171.7818 188.3873 15.04815863919571
SL-6 R/B(2)             
1 20666U 90055D   25322.21705028  .00003590  00000+0  28027-3 0  9996
2 20666  62.7836 272.7275 0010969 288.1192  71.8712 15.02912898921432
SL-8 R/B                
1 20775U 90078B   25322.47774884  .00021591  00000+0  66681-3 0  9995
2 20775  82.9057 351.0017 0379516  27.2004 334.8537 14.84550245792770
SL-8 R/B                
1 21088U 91006B   25322.35566505  .00000124  00000+0  10878-3 0  9997
2 21088  82.9421 252.8495 0022387 350.7696 124.2309 13.77485741748748
