CCSDS_OMM_VERS = 2.0
CREATION_DATE  = 
ORIGINATOR     = 

OBJECT_NAME    = DELTA 1 R/B
OBJECT_ID      = 1989-089B
CENTER_NAME    = EARTH
REF_FRAME      = TEME
TIME_SYSTEM    = UTC
MEAN_ELEMENT_THEORY = SGP/SGP4

EPOCH          = 2025-11-18T11:55:00.967008
MEAN_MOTION    = 14.50544369
ECCENTRICITY   = .0070642
INCLINATION    = 97.0772
RA_OF_ASC_NODE = 182.5740
ARG_OF_PERICENTER = 113.4099
MEAN_ANOMALY   = 247.4548

EPHEMERIS_TYPE = 0
CLASSIFICATION_TYPE = U
NORAD_CAT_ID   = 20323
ELEMENT_SET_NO = 999
REV_AT_EPOCH   = 87961
BSTAR          = .14095E-3
MEAN_MOTION_DOT = .535E-5
MEAN_MOTION_DDOT = 0

CCSDS_OMM_VERS = 2.0
CREATION_DATE  = 
ORIGINATOR     = 

OBJECT_NAME    = ARIANE 40 R/B
OBJECT_ID      = 1990-005H
CENTER_NAME    = EARTH
REF_FRAME      = TEME
TIME_SYSTEM    = UTC
MEAN_ELEMENT_THEORY = SGP/SGP4

EPOCH          = 2025-11-18T03:18:36.268992
MEAN_MOTION    = 14.39772117
ECCENTRICITY   = .0010307
INCLINATION    = 98.3279
RA_OF_ASC_NODE = 21.0073
ARG_OF_PERICENTER = 174.1741
MEAN_ANOMALY   = 185.9569

EPHEMERIS_TYPE = 0
CLASSIFICATION_TYPE = U
NORAD_CAT_ID   = 20443
ELEMENT_SET_NO = 999
REV_AT_EPOCH   = 87675
BSTAR          = .16885E-3
MEAN_MOTION_DOT = .487E-5
MEAN_MOTION_DDOT = 0

CCSDS_OMM_VERS = 2.0
CREATION_DATE  = 
ORIGINATOR     = 

OBJECT_NAME    = COSMOS 2058
OBJECT_ID      = 1990-010A
CENTER_NAME    = EARTH
REF_FRAME      = TEME
TIME_SYSTEM    = UTC
MEAN_ELEMENT_THEORY = SGP/SGP4

EPOCH          = 2025-11-18T05:51:39.439872
MEAN_MOTION    = 15.10190522
ECCENTRICITY   = .0010514
INCLINATION    = 82.4636
RA_OF_ASC_NODE = 157.1297
ARG_OF_PERICENTER = 7.0933
MEAN_ANOMALY   = 353.0443

EPHEMERIS_TYPE = 0
CLASSIFICATION_TYPE = U
NORAD_CAT_ID   = 20465
ELEMENT_SET_NO = 999
REV_AT_EPOCH   = 92541
BSTAR          = .27413E-3
MEAN_MOTION_DOT = .4509E-4
MEAN_MOTION_DDOT = 0

CCSDS_OMM_VERS = 2.0
CREATION_DATE  = 
ORIGINATOR     = 

OBJECT_NAME    = SL-14 R/B
OBJECT_ID      = 1990-010B
CENTER_NAME    = EARTH
REF_FRAME      = TEME
TIME_SYSTEM    = UTC
MEAN_ELEMENT_THEORY = SGP/SGP4

EPOCH          = 2025-11-18T04:37:52.743648
MEAN_MOTION    = 14.83439884
ECCENTRICITY   = .0018615
INCLINATION    = 82.5042
RA_OF_ASC_NODE = 12.0996
ARG_OF_PERICENTER = 310.2203
MEAN_ANOMALY   = 49.7383

EPHEMERIS_TYPE = 0
CLASSIFICATION_TYPE = U
NORAD_CAT_ID   = 20466
ELEMENT_SET_NO = 999
REV_AT_EPOCH   = 91195
BSTAR          = .72134E-4
MEAN_MOTION_DOT = .617E-5
MEAN_MOTION_DDOT = 0

CCSDS_OMM_VERS = 2.0
CREATION_DATE  = 
ORIGINATOR     = 

OBJECT_NAME    = SL-14 R/B
OBJECT_ID      = 1990-018B
CENTER_NAME    = EARTH
REF_FRAME      = TEME
TIME_SYSTEM    = UTC
MEAN_ELEMENT_THEORY = SGP/SGP4

EPOCH          = 2025-11-18T10:35:19.145184
MEAN_MOTION    = 14.82012678
ECCENTRICITY   = .0017958
INCLINATION    = 82.5201
RA_OF_ASC_NODE = 327.0789
ARG_OF_PERICENTER = 97.6757
MEAN_ANOMALY   = 262.6497

EPHEMERIS_TYPE = 0
CLASSIFICATION_TYPE = U
NORAD_CAT_ID   = 20511
ELEMENT_SET_NO = 999
REV_AT_EPOCH   = 90610
BSTAR          = .76173E-4
MEAN_MOTION_DOT = .629E-5
MEAN_MOTION_DDOT = 0

CCSDS_OMM_VERS = 2.0
CREATION_DATE  = 
ORIGINATOR     = 

OBJECT_NAME    = SL-16 R/B
OBJECT_ID      = 1990-046B
CENTER_NAME    = EARTH
REF_FRAME      = TEME
TIME_SYSTEM    = UTC
MEAN_ELEMENT_THEORY = SGP/SGP4

EPOCH          = 2025-11-18T00:04:59.807136
MEAN_MOTION    = 14.14990065
ECCENTRICITY   = .0012304
INCLINATION    = 70.9960
RA_OF_ASC_NODE = 172.4700
ARG_OF_PERICENTER = 118.8557
MEAN_ANOMALY   = 241.3802

EPHEMERIS_TYPE = 0
CLASSIFICATION_TYPE = U
NORAD_CAT_ID   = 20625
ELEMENT_SET_NO = 999
REV_AT_EPOCH   = 83259
BSTAR          = .53334E-5
MEAN_MOTION_DOT = -.37E-6
MEAN_MOTION_DDOT = 0

CCSDS_OMM_VERS = 2.0
CREATION_DATE  = 
ORIGINATOR     = 

OBJECT_NAME    = COSMOS 2084
OBJECT_ID      = 1990-055A
CENTER_NAME    = EARTH
REF_FRAME      = TEME
TIME_SYSTEM    = UTC
MEAN_ELEMENT_THEORY = SGP/SGP4

EPOCH          = 2025-11-18T10:44:37.137120
MEAN_MOTION    = 15.04815863
ECCENTRICITY   = .0035582
INCLINATION    = 62.7919
RA_OF_ASC_NODE = 354.7526
ARG_OF_PERICENTER = 171.7818
MEAN_ANOMALY   = 188.3873

EPHEMERIS_TYPE = 0
CLASSIFICATION_TYPE = U
NORAD_CAT_ID   = 20663
ELEMENT_SET_NO = 999
REV_AT_EPOCH   = 91957
BSTAR          = .25344E-3
MEAN_MOTION_DOT = .344E-4
MEAN_MOTION_DDOT = 0

CCSDS_OMM_VERS = 2.0
CREATION_DATE  = 
ORIGINATOR     = 

OBJECT_NAME    = SL-6 R/B(2)
OBJECT_ID      = 1990-055D
CENTER_NAME    = EARTH
REF_FRAME      = TEME
TIME_SYSTEM    = UTC
MEAN_ELEMENT_THEORY = SGP/SGP4

EPOCH          = 2025-11-18T05:12:33.144192
MEAN_MOTION    = 15.02912898
ECCENTRICITY   = .0010969
INCLINATION    = 62.7836
RA_OF_ASC_NODE = 272.7275
ARG_OF_PERICENTER = 288.1192
MEAN_ANOMALY   = 71.8712

EPHEMERIS_TYPE = 0
CLASSIFICATION_TYPE = U
NORAD_CAT_ID   = 20666
ELEMENT_SET_NO = 999
REV_AT_EPOCH   = 92143
BSTAR          = .28027E-3
MEAN_MOTION_DOT = .359E-4
MEAN_MOTION_DDOT = 0

CCSDS_OMM_VERS = 2.0
CREATION_DATE  = 
ORIGINATOR     = 

OBJECT_NAME    = SL-8 R/B
OBJECT_ID      = 1990-078B
CENTER_NAME    = EARTH
REF_FRAME      = TEME
TIME_SYSTEM    = UTC
MEAN_ELEMENT_THEORY = SGP/SGP4

EPOCH          = 2025-11-18T11:27:57.499776
MEAN_MOTION    = 14.84550245
ECCENTRICITY   = .0379516
INCLINATION    = 82.9057
RA_OF_ASC_NODE = 351.0017
ARG_OF_PERICENTER = 27.2004
MEAN_ANOMALY   = 334.8537

EPHEMERIS_TYPE = 0
CLASSIFICATION_TYPE = U
NORAD_CAT_ID   = 20775
ELEMENT_SET_NO = 999
REV_AT_EPOCH   = 79277
BSTAR          = .66681E-3
MEAN_MOTION_DOT = .21591E-3
MEAN_MOTION_DDOT = 0

CCSDS_OMM_VERS = 2.0
CREATION_DATE  = 
ORIGINATOR     = 

OBJECT_NAME    = SL-8 R/B
OBJECT_ID      = 1991-006B
CENTER_NAME    = EARTH
REF_FRAME      = TEME
TIME_SYSTEM    = UTC
MEAN_ELEMENT_THEORY = SGP/SGP4

EPOCH          = 2025-11-18T08:32:09.460320
MEAN_MOTION    = 13.77485741
ECCENTRICITY   = .0022387
INCLINATION    = 82.9421
RA_OF_ASC_NODE = 252.8495
ARG_OF_PERICENTER = 350.7696
MEAN_ANOMALY   = 124.2309

EPHEMERIS_TYPE = 0
CLASSIFICATION_TYPE = U
NORAD_CAT_ID   = 21088
ELEMENT_SET_NO = 999
REV_AT_EPOCH   = 74874
BSTAR          = .10878E-3
MEAN_MOTION_DOT = .124E-5
MEAN_MOTION_DDOT = 0

